[{"OBJECT_NAME":"HISAKI (SPRINT-A)","OBJECT_ID":"2013-049A","EPOCH":"2026-03-09T22:09:18.719712","MEAN_MOTION":13.55530561,"ECCENTRICITY":0.01366264,"INCLINATION":29.7223,"RA_OF_ASC_NODE":4.6706,"ARG_OF_PERICENTER":291.9905,"MEAN_ANOMALY":66.62,"EPHEMERIS_TYPE":0,"CLASSIFICATION_TYPE":"U","NORAD_CAT_ID":39253,"ELEMENT_SET_NO":999,"REV_AT_EPOCH":61794,"BSTAR":6.2697176e-5,"MEAN_MOTION_DOT":1.12e-6,"MEAN_MOTION_DDOT":0},{"OBJECT_NAME":"KIKU-4 (ETS-III)","OBJECT_ID":"1982-087A","EPOCH":"2026-03-09T22:43:32.623968","MEAN_MOTION":13.71260982,"ECCENTRICITY":0.00110987,"INCLINATION":44.6181,"RA_OF_ASC_NODE":0.8113,"ARG_OF_PERICENTER":22.8719,"MEAN_ANOMALY":65.975,"EPHEMERIS_TYPE":0,"CLASSIFICATION_TYPE":"U","NORAD_CAT_ID":13492,"ELEMENT_SET_NO":999,"REV_AT_EPOCH":17899,"BSTAR":8.267236e-5,"MEAN_MOTION_DOT":-4.3e-7,"MEAN_MOTION_DDOT":0}]
